{"fetched_at":"2026-03-29T16:36:15Z","count":15609,"tles":[{"name":"STARLINK-11603 [DTC]","line1":"1 63671U 25085H   26087.91000869  .00201039  00000+0  15290-2 0  9992","line2":"2 63671  43.0012 162.6554 0003114  52.1979 307.9171 15.70894293 53268","category":"Starlink"}]}